{
    "links": {
        "self": "http://www.neowsapp.com/rest/v1/neo/54017165?api_key=iIulBulltgU6a56xZRHN4H3l9WmuAYTsLGpBGhQ2"
    },
    "id": "54017165",
    "neo_reference_id": "54017165",
    "name": "(2020 KU2)",
    "designation": "2020 KU2",
    "nasa_jpl_url": "http://ssd.jpl.nasa.gov/sbdb.cgi?sstr=54017165",
    "absolute_magnitude_h": 25.782,
    "estimated_diameter": {
        "kilometers": {
            "estimated_diameter_min": 0.0185419317,
            "estimated_diameter_max": 0.0414610197
        },
        "meters": {
            "estimated_diameter_min": 18.5419316832,
            "estimated_diameter_max": 41.4610196777
        },
        "miles": {
            "estimated_diameter_min": 0.0115214186,
            "estimated_diameter_max": 0.0257626753
        },
        "feet": {
            "estimated_diameter_min": 60.8331111434,
            "estimated_diameter_max": 136.0269717994
        }
    },
    "is_potentially_hazardous_asteroid": false,
    "close_approach_data": [
        {
            "close_approach_date": "2017-12-31",
            "close_approach_date_full": "2017-Dec-31 20:20",
            "epoch_date_close_approach": 1514751600000,
            "relative_velocity": {
                "kilometers_per_second": "11.4016646207",
                "kilometers_per_hour": "41045.9926346842",
                "miles_per_hour": "25504.3835901458"
            },
            "miss_distance": {
                "astronomical": "0.0428893695",
                "lunar": "16.6839647355",
                "kilometers": "6416158.322842965",
                "miles": "3986815.910704317"
            },
            "orbiting_body": "Mars"
        },
        {
            "close_approach_date": "2020-05-25",
            "close_approach_date_full": "2020-May-25 07:47",
            "epoch_date_close_approach": 1590392820000,
            "relative_velocity": {
                "kilometers_per_second": "13.7355928644",
                "kilometers_per_hour": "49448.1343119732",
                "miles_per_hour": "30725.1476784591"
            },
            "miss_distance": {
                "astronomical": "0.0243977579",
                "lunar": "9.4907278231",
                "kilometers": "3649852.614615673",
                "miles": "2267913.2501873674"
            },
            "orbiting_body": "Earth"
        },
        {
            "close_approach_date": "2020-07-10",
            "close_approach_date_full": "2020-Jul-10 08:27",
            "epoch_date_close_approach": 1594369620000,
            "relative_velocity": {
                "kilometers_per_second": "7.0685657564",
                "kilometers_per_hour": "25446.8367231334",
                "miles_per_hour": "15811.6747405492"
            },
            "miss_distance": {
                "astronomical": "0.0757818091",
                "lunar": "29.4791237399",
                "kilometers": "11336797.226106617",
                "miles": "7044359.1450286346"
            },
            "orbiting_body": "Venus"
        },
        {
            "close_approach_date": "2022-11-03",
            "close_approach_date_full": "2022-Nov-03 22:17",
            "epoch_date_close_approach": 1667513820000,
            "relative_velocity": {
                "kilometers_per_second": "25.1709994336",
                "kilometers_per_hour": "90615.597960875",
                "miles_per_hour": "56305.008632967"
            },
            "miss_distance": {
                "astronomical": "0.3631404769",
                "lunar": "141.2616455141",
                "kilometers": "54325041.855024203",
                "miles": "33756015.7214638814"
            },
            "orbiting_body": "Earth"
        }
    ],
    "orbital_data": {
        "orbit_id": "4",
        "orbit_determination_date": "2020-06-13 06:13:23",
        "first_observation_date": "2020-05-16",
        "last_observation_date": "2020-05-23",
        "data_arc_in_days": 7,
        "observations_used": 59,
        "orbit_uncertainty": "8",
        "minimum_orbit_intersection": ".00224002",
        "jupiter_tisserand_invariant": "4.049",
        "epoch_osculation": "2458988.5",
        "eccentricity": ".5365496183824322",
        "semi_major_axis": "1.68479061528822",
        "inclination": "1.374082459719218",
        "ascending_node_longitude": "205.89212309",
        "orbital_period": "798.7618771712482",
        "perihelion_distance": ".7808168536010223",
        "perihelion_argument": "106.7163467080265",
        "aphelion_distance": "2.588764376975417",
        "perihelion_time": "2459041.889313527830",
        "mean_anomaly": "335.9375686054454",
        "mean_motion": ".4506975236160637",
        "equinox": "J2000",
        "orbit_class": {
            "orbit_class_type": "APO",
            "orbit_class_description": "Near-Earth asteroid orbits which cross the Earth’s orbit similar to that of 1862 Apollo",
            "orbit_class_range": "a (semi-major axis) > 1.0 AU; q (perihelion) < 1.017 AU"
        }
    },
    "is_sentry_object": false
}